      2.10          N: GNSS NAV DATA                        RINEX VERSION / TYPE
fic2rin                                 10/26/2018 00:23:10 PGM / RUN BY / DATE
                                                            END OF HEADER
18 18 10 25 16  0  0.0 7.213791832328e-05 4.206412995700e-12 0.000000000000e+00
    7.400000000000e+01 4.518750000000e+01 4.778413325809e-09-2.510213138830e+00
    2.246350049973e-06 1.497787854169e-02 9.803101420403e-06 5.153621938705e+03
    4.032000000000e+05 2.533197402954e-07 8.519022583599e-01 5.401670932770e-08
    9.513752925082e-01 1.815000000000e+02 1.359342765351e+00-7.893900241202e-09
    8.128910030303e-10 1.000000000000e+00 2.024000000000e+03 0.000000000000e+00
    3.400000000000e+00 0.000000000000e+00-6.519258022308e-09 7.400000000000e+01
    3.960060000000e+05 4.000000000000e+00
12 18 10 25 16  0  0.0 2.971347421408e-04-2.842170943040e-12 0.000000000000e+00
    6.000000000000e+01-5.881250000000e+01 4.156244552840e-09 2.742799148800e+00
   -3.073364496231e-06 7.037286646664e-03 2.007931470871e-06 5.153751834869e+03
    4.032000000000e+05 3.911554813385e-08-1.131588206185e+00-7.823109626770e-08
    9.848698640116e-01 3.516562500000e+02 1.023132638518e+00-8.094265730086e-09
   -1.857220217820e-10 1.000000000000e+00 2.024000000000e+03 0.000000000000e+00
    2.400000000000e+00 0.000000000000e+00-1.257285475731e-08 6.000000000000e+01
    3.960060000000e+05 4.000000000000e+00
10 18 10 25 16  0  0.0 1.713009551167e-04-3.751665644813e-12 0.000000000000e+00
    7.800000000000e+01-2.334375000000e+01 5.166643782881e-09 2.029932115598e+00
   -1.149252057076e-06 3.914953791536e-03 4.487112164497e-06 5.153655168533e+03
    4.032000000000e+05-1.210719347000e-07 1.942134769617e+00 1.098960638046e-07
    9.613960999494e-01 2.944687500000e+02-2.816429524417e+00-8.427851053825e-09
   -2.278666344171e-10 1.000000000000e+00 2.024000000000e+03 0.000000000000e+00
    2.400000000000e+00 0.000000000000e+00 1.862645149231e-09 7.800000000000e+01
    3.960060000000e+05 4.000000000000e+00
29 18 10 25 16  0  0.0 3.497917205095e-04-7.730704965070e-12 0.000000000000e+00
    5.300000000000e+01-8.421875000000e+01 3.679081819954e-09 4.429570061830e-01
   -4.561617970467e-06 7.014191942289e-04 1.175329089165e-05 5.153615802765e+03
    4.032000000000e+05 7.450580596924e-09-8.729665202739e-02 1.303851604462e-08
    9.851629406308e-01 1.627812500000e+02 1.661128159330e+00-7.604245318769e-09
   -4.143029716675e-11 1.000000000000e+00 2.024000000000e+03 0.000000000000e+00
    3.400000000000e+00 0.000000000000e+00-1.024454832077e-08 5.300000000000e+01
    3.960060000000e+05 4.000000000000e+00
28 18 10 25 16  0  0.0 7.514874450862e-04 1.818989403546e-12 0.000000000000e+00
    2.700000000000e+01-5.028125000000e+01 4.406254966777e-09 7.997325135321e-01
   -2.887099981308e-06 1.964966580272e-02 2.698972821236e-06 5.153685571671e+03
    4.032000000000e+05-2.011656761169e-07-1.108546471090e+00-1.825392246246e-07
    9.841797675177e-01 3.437187500000e+02-1.506693099838e+00-8.587143403276e-09
   -2.675111429129e-10 1.000000000000e+00 2.024000000000e+03 0.000000000000e+00
    2.400000000000e+00 0.000000000000e+00-1.117587089539e-08 2.700000000000e+01
    3.960060000000e+05 4.000000000000e+00
24 18 10 25 16  0  0.0-5.725445225835e-05-5.684341886081e-13 0.000000000000e+00
    1.760000000000e+02 1.232500000000e+02 4.831272670470e-09-1.909998280558e+00
    6.409361958504e-06 7.472456200048e-03 7.128342986107e-06 5.153624565125e+03
    4.032000000000e+05-4.097819328308e-08-2.290292644956e+00-9.872019290924e-08
    9.404933807644e-01 2.335000000000e+02 5.412836640773e-01-8.216413675181e-09
    3.539433145883e-10 1.000000000000e+00 2.024000000000e+03 0.000000000000e+00
    3.400000000000e+00 0.000000000000e+00 2.793967723846e-09 1.760000000000e+02
    3.960060000000e+05 4.000000000000e+00
20 18 10 25 16  0  0.0 5.177934654057e-04 5.684341886081e-13 0.000000000000e+00
    1.140000000000e+02-1.087500000000e+01 5.885602301817e-09-2.448204444833e+00
   -3.781169652939e-07 4.408548353240e-03 3.628432750702e-06 5.153663215637e+03
    4.032000000000e+05-4.842877388000e-08 1.830901332641e+00 5.401670932770e-08
    9.287937168321e-01 2.923125000000e+02 2.142428990070e+00-8.745007121791e-09
   -7.178870457341e-11 1.000000000000e+00 2.024000000000e+03 0.000000000000e+00
    2.400000000000e+00 0.000000000000e+00-8.381903171539e-09 1.140000000000e+02
    3.960060000000e+05 4.000000000000e+00
18 18 10 25 15 59 28.0 7.213512435555e-05 4.092726157978e-12 0.000000000000e+00
    8.000000000000e+00 4.518750000000e+01 4.778413325809e-09-2.514881026615e+00
    2.246350049973e-06 1.497787749395e-02 9.803101420403e-06 5.153621931076e+03
    4.031680000000e+05 2.533197402954e-07 8.519025055931e-01 5.401670932770e-08
    9.513752705645e-01 1.815000000000e+02 1.359343153024e+00-7.893900241202e-09
    8.128910030303e-10 1.000000000000e+00 2.024000000000e+03 0.000000000000e+00
    2.400000000000e+00 0.000000000000e+00-6.519258022308e-09 8.000000000000e+00
    3.976860000000e+05 4.000000000000e+00
 4 18 10 25 15 59 44.0-3.995373845100e-06-2.592059900053e-11 0.000000000000e+00
    4.000000000000e+01-1.138750000000e+02 4.418041172006e-09 8.818314234755e-02
   -5.884096026421e-06 1.361799112055e-02 1.056678593159e-05 5.153676141739e+03
    4.031840000000e+05 1.564621925354e-07-2.501025975256e-01 1.769512891769e-07
    9.591093571088e-01 1.780937500000e+02 5.721718714722e-01-8.233914404157e-09
   -2.060800126311e-10 1.000000000000e+00 2.024000000000e+03 0.000000000000e+00
    2.400000000000e+00 6.300000000000e+01-5.587935447693e-09 4.000000000000e+01
    3.979860000000e+05 4.000000000000e+00
29 18 10 25 15 59 44.0 3.497903235257e-04-7.730704965070e-12 0.000000000000e+00
    7.000000000000e+00-8.421875000000e+01 3.679081819954e-09 4.406255931389e-01
   -4.561617970467e-06 7.014170987532e-04 1.175329089165e-05 5.153615800858e+03
    4.031840000000e+05 7.450580596924e-09-8.729651743892e-02 1.303851604462e-08
    9.851629362421e-01 1.627812500000e+02 1.661125786477e+00-7.604245318769e-09
   -4.143029716675e-11 1.000000000000e+00 2.024000000000e+03 0.000000000000e+00
    2.400000000000e+00 0.000000000000e+00-1.024454832077e-08 7.000000000000e+00
    3.990060000000e+05 4.000000000000e+00
13 18 10 25 15 59 44.0-8.620088919997e-05 9.094947017729e-13 0.000000000000e+00
    4.000000000000e+00 1.675000000000e+01 4.080884270924e-09-1.273067810921e+00
    7.543712854385e-07 3.530334215611e-03 1.211836934090e-05 5.153676635742e+03
    4.031840000000e+05-3.352761268616e-08 3.112438548324e+00 1.229345798492e-07
    9.687294127713e-01 1.492187500000e+02 1.432986689053e+00-7.770323665170e-09
   -4.575190575052e-10 1.000000000000e+00 2.024000000000e+03 0.000000000000e+00
    2.400000000000e+00 0.000000000000e+00-1.117587089539e-08 4.000000000000e+00
    3.994560000000e+05 4.000000000000e+00
18 18 10 25 17 59 28.0 7.216492667794e-05 4.092726157978e-12 0.000000000000e+00
    5.000000000000e+01 4.884375000000e+01 4.816272045634e-09-1.464683890146e+00
    2.853572368622e-06 1.497823779937e-02 9.907409548759e-06 5.153621204376e+03
    4.103680000000e+05 1.881271600723e-07 8.518458935893e-01 3.743916749954e-07
    9.513799431248e-01 1.838750000000e+02 1.359360514936e+00-8.137124658189e-09
    7.178870457341e-10 1.000000000000e+00 2.024000000000e+03 0.000000000000e+00
    2.400000000000e+00 0.000000000000e+00-6.519258022308e-09 5.000000000000e+01
    4.032060000000e+05 4.000000000000e+00
 4 18 10 25 17 59 44.0-4.181638360023e-06-2.580691216281e-11 0.000000000000e+00
    4.100000000000e+01-1.103437500000e+02 4.324823003380e-09 1.138348675397e+00
   -5.742534995079e-06 1.361844048370e-02 1.058168709278e-05 5.153677032471e+03
    4.103840000000e+05-9.685754776001e-08-2.501603330506e-01 1.490116119385e-07
    9.591074158165e-01 1.769062500000e+02 5.721835982236e-01-8.119623929214e-09
   -3.871589838686e-10 1.000000000000e+00 2.024000000000e+03 0.000000000000e+00
    2.400000000000e+00 6.300000000000e+01-5.587935447693e-09 4.100000000000e+01
    4.032060000000e+05 4.000000000000e+00
13 18 10 25 17 59 44.0-8.619436994195e-05 9.094947017729e-13 0.000000000000e+00
    5.000000000000e+00 1.021875000000e+01 4.222675891400e-09-2.231046228488e-01
    6.780028343201e-07 3.529704990797e-03 1.221522688866e-05 5.153674798965e+03
    4.103840000000e+05-4.284083843231e-08 3.112381899748e+00 1.117587089539e-08
    9.687259675992e-01 1.459375000000e+02 1.433200923165e+00-7.855327205909e-09
   -4.182317067436e-10 1.000000000000e+00 2.024000000000e+03 0.000000000000e+00
    2.400000000000e+00 0.000000000000e+00-1.117587089539e-08 5.000000000000e+00
    4.032060000000e+05 4.000000000000e+00
29 18 10 25 17 59 44.0 3.497344441712e-04-7.730704965070e-12 0.000000000000e+00
    2.400000000000e+01-8.712500000000e+01 3.590506701873e-09 1.489223161814e+00
   -4.513189196587e-06 7.016313029453e-04 1.135654747486e-05 5.153617778778e+03
    4.103840000000e+05 1.117587089539e-08-8.735126714804e-02 9.313225746155e-09
    9.851626597506e-01 1.726875000000e+02 1.662738148952e+00-7.599959425958e-09
   -4.035882396416e-11 1.000000000000e+00 2.024000000000e+03 0.000000000000e+00
    2.400000000000e+00 0.000000000000e+00-1.024454832077e-08 2.400000000000e+01
    4.032060000000e+05 4.000000000000e+00
 2 18 10 25 18  0  0.0-4.017446190119e-05-1.068656274583e-11 0.000000000000e+00
    7.500000000000e+01 4.328125000000e+01 4.861273920143e-09-9.117722919357e-01
    2.577900886536e-06 1.827241701540e-02 9.840354323387e-06 5.153580316544e+03
    4.104000000000e+05-1.583248376846e-07 8.380370719050e-01 3.278255462646e-07
    9.520366338843e-01 1.920625000000e+02-1.821075586308e+00-8.350347825504e-09
    6.543129690472e-10 1.000000000000e+00 2.024000000000e+03 0.000000000000e+00
    2.400000000000e+00 0.000000000000e+00-2.048909664154e-08 7.500000000000e+01
    4.032060000000e+05 4.000000000000e+00
